{
  "norad_id": 55327,
  "name": "HAWK-6A",
  "history": [
    {
      "epoch": "2026-03-28T01:04:32.923200",
      "apogee_km": 501.53377070994884,
      "perigee_km": 497.3097116822819,
      "latitude_deg": -18.992643031751477,
      "longitude_deg": 77.003247999819,
      "semi_major_axis_km": 6877.558741196115,
      "eccentricity": 0.00030709,
      "inclination_deg": 40.4987,
      "raan_deg": 103.5427,
      "arg_perigee_deg": 195.8659,
      "mean_anomaly_deg": 164.2055,
      "mean_motion_rev_day": 15.22128436
    }
  ]
}